[{"OBJECT_NAME":"FLOCK 4G-24","OBJECT_ID":"2025-009AE","EPOCH":"2026-03-09T17:24:07.838208","MEAN_MOTION":15.27784978,"ECCENTRICITY":0.0001802,"INCLINATION":97.4061,"RA_OF_ASC_NODE":151.514,"ARG_OF_PERICENTER":280.2808,"MEAN_ANOMALY":79.8228,"EPHEMERIS_TYPE":0,"CLASSIFICATION_TYPE":"U","NORAD_CAT_ID":62637,"ELEMENT_SET_NO":999,"REV_AT_EPOCH":6373,"BSTAR":0.00038996067,"MEAN_MOTION_DOT":0.00010513,"MEAN_MOTION_DDOT":0},{"OBJECT_NAME":"STARLINK-34774","OBJECT_ID":"2025-263A","EPOCH":"2026-03-09T04:13:32.424672","MEAN_MOTION":15.27561475,"ECCENTRICITY":0.000182,"INCLINATION":43.0043,"RA_OF_ASC_NODE":353.3213,"ARG_OF_PERICENTER":252.6515,"MEAN_ANOMALY":107.4138,"EPHEMERIS_TYPE":0,"CLASSIFICATION_TYPE":"U","NORAD_CAT_ID":66485,"ELEMENT_SET_NO":999,"REV_AT_EPOCH":1882,"BSTAR":0.0011355911,"MEAN_MOTION_DOT":0.00031101,"MEAN_MOTION_DDOT":0}]
